SHIJIAN-20 (SJ-20)      
1 44910U 19097A   26032.45615319 -.00000128  00000+0  00000+0 0  9991
2 44910   4.5705  76.7561 0008609 252.1144  44.9638  1.00270753 22334
TJS-5                   
1 44978U 20002A   26027.85956723 -.00000335  00000+0  00000+0 0  9998
2 44978   0.4651  88.1114 0005432 131.9282 323.9851  1.00268890 22293
GSAT-30                 
1 45026U 20005A   26032.93497671 -.00000174  00000+0  00000+0 0  9994
2 45026   0.0140  85.9526 0000629 170.7390 295.0041  1.00269666 22150
EUTELSAT KONNECT        
1 45027U 20005B   26032.90947442  .00000039  00000+0  00000+0 0  9997
2 45027   0.0668  95.5862 0001530 183.9480 187.1544  1.00270378 22986
JCSAT-17                
1 45245U 20013A   26032.88239124 -.00000319  00000+0  00000+0 0  9998
2 45245   5.3966 355.5376 0004591 327.8992 262.2811  1.00270424 21874
GEO-KOMPSAT-2B          
1 45246U 20013B   26032.94399010 -.00000354  00000+0  00000+0 0  9996
2 45246   0.0395 264.4452 0002284  33.1508 302.6121  1.00270126 21921
BEIDOU-3 G2             
1 45344U 20017A   26032.93445670 -.00000150  00000+0  00000+0 0  9996
2 45344   2.5942  44.9839 0002625 270.4808 233.0786  1.00271814 21900
AEHF-6 (USA 298)        
1 45465U 20022B   26032.94572344 -.00000306  00000+0  00000+0 0  9999
2 45465   2.8427 299.6142 0049820  12.2704 298.4534  1.00269571 21651
BEIDOU-3 G3             
1 45807U 20040A   26032.94043675 -.00000364  00000+0  00000+0 0  9993
2 45807   2.1151  66.9811 0004732 306.9374 207.3143  1.00268618 20717
APSTAR-6D               
1 45863U 20045A   26032.94511677 -.00000328  00000+0  00000+0 0  9992
2 45863   0.0416  98.2288 0001884 352.8559 155.2880  1.00271799 20506
KOREASAT 116            
1 45920U 20048A   26032.94156341  .00000000  00000+0  00000+0 0  9998
2 45920   0.0180  83.5775 0001180 235.8614 267.8774  1.00270647 20285
EXPRESS 103             
1 45985U 20053A   26032.29560679  .00000000  00000+0  00000+0 0  9996
2 45985   0.0205  72.8977 0000545 192.5774  68.9503  1.00268913 20282
EXPRESS 80              
1 45986U 20053B   26032.41222439 -.00000144  00000+0  00000+0 0  9990
2 45986   0.0128  29.5616 0001327  19.8359 310.5766  1.00269378 20266
BSAT-4B                 
1 46112U 20056A   26032.94035008 -.00000360  00000+0  00000+0 0  9997
2 46112   0.0406 202.9982 0000320 239.7946 137.6715  1.00269645 20031
MEV-2                   
1 46113U 20056B   26032.91833661 -.00000021  00000+0  00000+0 0  9990
2 46113   0.0153  91.5029 0000875 254.6658 115.5491  1.00269531 19179
GALAXY 30 (G-30)        
1 46114U 20056C   26032.67981863  .00000027  00000+0  00000+0 0  9997
2 46114   0.0162  66.4265 0002242 252.2121 292.9621  1.00272904 19939
GAOFEN-13 01            
1 46610U 20071A   26032.94199676 -.00000373  00000+0  00000+0 0  9993
2 46610   0.1711  85.6655 0043314 118.8320  24.9810  1.00273858 19561
