[{"OBJECT_NAME":"SHIJIAN-20 (SJ-20)","OBJECT_ID":"2019-097A","EPOCH":"2026-02-01T10:56:51.635616","MEAN_MOTION":1.00270753,"ECCENTRICITY":0.0008609,"INCLINATION":4.5705,"RA_OF_ASC_NODE":76.7561,"ARG_OF_PERICENTER":252.1144,"MEAN_ANOMALY":44.9638,"EPHEMERIS_TYPE":0,"CLASSIFICATION_TYPE":"U","NORAD_CAT_ID":44910,"ELEMENT_SET_NO":999,"REV_AT_EPOCH":2233,"BSTAR":0,"MEAN_MOTION_DOT":-1.28e-6,"MEAN_MOTION_DDOT":0},{"OBJECT_NAME":"TJS-5","OBJECT_ID":"2020-002A","EPOCH":"2026-01-27T20:37:46.608672","MEAN_MOTION":1.0026889,"ECCENTRICITY":0.0005432,"INCLINATION":0.4651,"RA_OF_ASC_NODE":88.1114,"ARG_OF_PERICENTER":131.9282,"MEAN_ANOMALY":323.9851,"EPHEMERIS_TYPE":0,"CLASSIFICATION_TYPE":"U","NORAD_CAT_ID":44978,"ELEMENT_SET_NO":999,"REV_AT_EPOCH":2229,"BSTAR":0,"MEAN_MOTION_DOT":-3.35e-6,"MEAN_MOTION_DDOT":0},{"OBJECT_NAME":"GSAT-30","OBJECT_ID":"2020-005A","EPOCH":"2026-02-01T22:26:21.987744","MEAN_MOTION":1.00269666,"ECCENTRICITY":6.291e-5,"INCLINATION":0.014,"RA_OF_ASC_NODE":85.9526,"ARG_OF_PERICENTER":170.739,"MEAN_ANOMALY":295.0041,"EPHEMERIS_TYPE":0,"CLASSIFICATION_TYPE":"U","NORAD_CAT_ID":45026,"ELEMENT_SET_NO":999,"REV_AT_EPOCH":2215,"BSTAR":0,"MEAN_MOTION_DOT":-1.74e-6,"MEAN_MOTION_DDOT":0},{"OBJECT_NAME":"EUTELSAT KONNECT","OBJECT_ID":"2020-005B","EPOCH":"2026-02-01T21:49:38.589888","MEAN_MOTION":1.00270378,"ECCENTRICITY":0.00015308,"INCLINATION":0.0668,"RA_OF_ASC_NODE":95.5862,"ARG_OF_PERICENTER":183.948,"MEAN_ANOMALY":187.1544,"EPHEMERIS_TYPE":0,"CLASSIFICATION_TYPE":"U","NORAD_CAT_ID":45027,"ELEMENT_SET_NO":999,"REV_AT_EPOCH":2298,"BSTAR":0,"MEAN_MOTION_DOT":3.9e-7,"MEAN_MOTION_DDOT":0},{"OBJECT_NAME":"JCSAT-17","OBJECT_ID":"2020-013A","EPOCH":"2026-02-01T21:10:38.603136","MEAN_MOTION":1.00270424,"ECCENTRICITY":0.00045915,"INCLINATION":5.3966,"RA_OF_ASC_NODE":355.5376,"ARG_OF_PERICENTER":327.8992,"MEAN_ANOMALY":262.2811,"EPHEMERIS_TYPE":0,"CLASSIFICATION_TYPE":"U","NORAD_CAT_ID":45245,"ELEMENT_SET_NO":999,"REV_AT_EPOCH":2187,"BSTAR":0,"MEAN_MOTION_DOT":-3.19e-6,"MEAN_MOTION_DDOT":0},{"OBJECT_NAME":"GEO-KOMPSAT-2B","OBJECT_ID":"2020-013B","EPOCH":"2026-02-01T22:39:20.744640","MEAN_MOTION":1.00270126,"ECCENTRICITY":0.00022846,"INCLINATION":0.0395,"RA_OF_ASC_NODE":264.4452,"ARG_OF_PERICENTER":33.1508,"MEAN_ANOMALY":302.6121,"EPHEMERIS_TYPE":0,"CLASSIFICATION_TYPE":"U","NORAD_CAT_ID":45246,"ELEMENT_SET_NO":999,"REV_AT_EPOCH":2192,"BSTAR":0,"MEAN_MOTION_DOT":-3.54e-6,"MEAN_MOTION_DDOT":0},{"OBJECT_NAME":"BEIDOU-3 G2","OBJECT_ID":"2020-017A","EPOCH":"2026-02-01T22:25:37.058880","MEAN_MOTION":1.00271814,"ECCENTRICITY":0.00026259,"INCLINATION":2.5942,"RA_OF_ASC_NODE":44.9839,"ARG_OF_PERICENTER":270.4808,"MEAN_ANOMALY":233.0786,"EPHEMERIS_TYPE":0,"CLASSIFICATION_TYPE":"U","NORAD_CAT_ID":45344,"ELEMENT_SET_NO":999,"REV_AT_EPOCH":2190,"BSTAR":0,"MEAN_MOTION_DOT":-1.5e-6,"MEAN_MOTION_DDOT":0},{"OBJECT_NAME":"AEHF-6 (USA 298)","OBJECT_ID":"2020-022B","EPOCH":"2026-02-01T22:41:50.505216","MEAN_MOTION":1.00269571,"ECCENTRICITY":0.00498207,"INCLINATION":2.8427,"RA_OF_ASC_NODE":299.6142,"ARG_OF_PERICENTER":12.2704,"MEAN_ANOMALY":298.4534,"EPHEMERIS_TYPE":0,"CLASSIFICATION_TYPE":"U","NORAD_CAT_ID":45465,"ELEMENT_SET_NO":999,"REV_AT_EPOCH":2165,"BSTAR":0,"MEAN_MOTION_DOT":-3.06e-6,"MEAN_MOTION_DDOT":0},{"OBJECT_NAME":"BEIDOU-3 G3","OBJECT_ID":"2020-040A","EPOCH":"2026-02-01T22:34:13.735200","MEAN_MOTION":1.00268618,"ECCENTRICITY":0.0004732,"INCLINATION":2.1151,"RA_OF_ASC_NODE":66.9811,"ARG_OF_PERICENTER":306.9374,"MEAN_ANOMALY":207.3143,"EPHEMERIS_TYPE":0,"CLASSIFICATION_TYPE":"U","NORAD_CAT_ID":45807,"ELEMENT_SET_NO":999,"REV_AT_EPOCH":2071,"BSTAR":0,"MEAN_MOTION_DOT":-3.64e-6,"MEAN_MOTION_DDOT":0},{"OBJECT_NAME":"APSTAR-6D","OBJECT_ID":"2020-045A","EPOCH":"2026-02-01T22:40:58.088928","MEAN_MOTION":1.00271799,"ECCENTRICITY":0.00018842,"INCLINATION":0.0416,"RA_OF_ASC_NODE":98.2288,"ARG_OF_PERICENTER":352.8559,"MEAN_ANOMALY":155.288,"EPHEMERIS_TYPE":0,"CLASSIFICATION_TYPE":"U","NORAD_CAT_ID":45863,"ELEMENT_SET_NO":999,"REV_AT_EPOCH":2050,"BSTAR":0,"MEAN_MOTION_DOT":-3.28e-6,"MEAN_MOTION_DDOT":0},{"OBJECT_NAME":"KOREASAT 116","OBJECT_ID":"2020-048A","EPOCH":"2026-02-01T22:35:51.078624","MEAN_MOTION":1.00270647,"ECCENTRICITY":0.00011804,"INCLINATION":0.018,"RA_OF_ASC_NODE":83.5775,"ARG_OF_PERICENTER":235.8614,"MEAN_ANOMALY":267.8774,"EPHEMERIS_TYPE":0,"CLASSIFICATION_TYPE":"U","NORAD_CAT_ID":45920,"ELEMENT_SET_NO":999,"REV_AT_EPOCH":2028,"BSTAR":0,"MEAN_MOTION_DOT":0,"MEAN_MOTION_DDOT":0},{"OBJECT_NAME":"EXPRESS 103","OBJECT_ID":"2020-053A","EPOCH":"2026-02-01T07:05:40.426656","MEAN_MOTION":1.00268913,"ECCENTRICITY":5.45e-5,"INCLINATION":0.0205,"RA_OF_ASC_NODE":72.8977,"ARG_OF_PERICENTER":192.5774,"MEAN_ANOMALY":68.9503,"EPHEMERIS_TYPE":0,"CLASSIFICATION_TYPE":"U","NORAD_CAT_ID":45985,"ELEMENT_SET_NO":999,"REV_AT_EPOCH":2028,"BSTAR":0,"MEAN_MOTION_DOT":0,"MEAN_MOTION_DDOT":0},{"OBJECT_NAME":"EXPRESS 80","OBJECT_ID":"2020-053B","EPOCH":"2026-02-01T09:53:36.187296","MEAN_MOTION":1.00269378,"ECCENTRICITY":0.0001327,"INCLINATION":0.0128,"RA_OF_ASC_NODE":29.5616,"ARG_OF_PERICENTER":19.8359,"MEAN_ANOMALY":310.5766,"EPHEMERIS_TYPE":0,"CLASSIFICATION_TYPE":"U","NORAD_CAT_ID":45986,"ELEMENT_SET_NO":999,"REV_AT_EPOCH":2026,"BSTAR":0,"MEAN_MOTION_DOT":-1.44e-6,"MEAN_MOTION_DDOT":0},{"OBJECT_NAME":"BSAT-4B","OBJECT_ID":"2020-056A","EPOCH":"2026-02-01T22:34:06.246912","MEAN_MOTION":1.00269645,"ECCENTRICITY":3.205e-5,"INCLINATION":0.0406,"RA_OF_ASC_NODE":202.9982,"ARG_OF_PERICENTER":239.7946,"MEAN_ANOMALY":137.6715,"EPHEMERIS_TYPE":0,"CLASSIFICATION_TYPE":"U","NORAD_CAT_ID":46112,"ELEMENT_SET_NO":999,"REV_AT_EPOCH":2003,"BSTAR":0,"MEAN_MOTION_DOT":-3.6e-6,"MEAN_MOTION_DDOT":0},{"OBJECT_NAME":"MEV-2","OBJECT_ID":"2020-056B","EPOCH":"2026-02-01T22:02:24.283104","MEAN_MOTION":1.00269531,"ECCENTRICITY":8.759e-5,"INCLINATION":0.0153,"RA_OF_ASC_NODE":91.5029,"ARG_OF_PERICENTER":254.6658,"MEAN_ANOMALY":115.5491,"EPHEMERIS_TYPE":0,"CLASSIFICATION_TYPE":"U","NORAD_CAT_ID":46113,"ELEMENT_SET_NO":999,"REV_AT_EPOCH":1917,"BSTAR":0,"MEAN_MOTION_DOT":-2.1e-7,"MEAN_MOTION_DDOT":0},{"OBJECT_NAME":"GALAXY 30 (G-30)","OBJECT_ID":"2020-056C","EPOCH":"2026-02-01T16:18:56.329632","MEAN_MOTION":1.00272904,"ECCENTRICITY":0.00022424,"INCLINATION":0.0162,"RA_OF_ASC_NODE":66.4265,"ARG_OF_PERICENTER":252.2121,"MEAN_ANOMALY":292.9621,"EPHEMERIS_TYPE":0,"CLASSIFICATION_TYPE":"U","NORAD_CAT_ID":46114,"ELEMENT_SET_NO":999,"REV_AT_EPOCH":1993,"BSTAR":0,"MEAN_MOTION_DOT":2.7e-7,"MEAN_MOTION_DDOT":0},{"OBJECT_NAME":"GAOFEN-13 01","OBJECT_ID":"2020-071A","EPOCH":"2026-02-01T22:36:28.520064","MEAN_MOTION":1.00273858,"ECCENTRICITY":0.00433143,"INCLINATION":0.1711,"RA_OF_ASC_NODE":85.6655,"ARG_OF_PERICENTER":118.832,"MEAN_ANOMALY":24.981,"EPHEMERIS_TYPE":0,"CLASSIFICATION_TYPE":"U","NORAD_CAT_ID":46610,"ELEMENT_SET_NO":999,"REV_AT_EPOCH":1956,"BSTAR":0,"MEAN_MOTION_DOT":-3.73e-6,"MEAN_MOTION_DDOT":0}]
